KUIPER-00008            
1 63724U 25088A   25284.07156941 -.00000799  00000+0 -42687-4 0  9996
2 63724  51.8914  49.1578 0010895 318.8995  41.1154 14.99553785 25618
KUIPER-00009            
1 63725U 25088B   25284.06924791  .00003708  00000+0  51386-3 0  9998
2 63725  51.9040  48.2268 0012100 328.5500  31.4738 14.80020012 25620
KUIPER-00010            
1 63726U 25088C   25284.16668980 -.00827616  00000+0 -68637-1 0  9994
2 63726  51.8887  25.3126 0011436 359.5161 340.0677 15.01031762  4273
KUIPER-00011            
1 63727U 25088D   25284.01985596  .00001178  00000+0  18359-3 0  9997
2 63727  51.9034  32.5036 0012497 345.6503  14.4103 14.79946206 25599
KUIPER-00012            
1 63728U 25088E   25283.65944880  .00005360  00000+0  25163-3 0  9996
2 63728  51.8748  26.8847 0010326 334.5894  25.4577 15.21151825 25596
KUIPER-00013            
1 63729U 25088F   25284.06807358 -.00002129  00000+0 -24992-3 0  9992
2 63729  51.9025  49.6983 0007043 249.7875 110.2330 14.79952830 25416
KUIPER-00014            
1 63730U 25088G   25284.06659016  .00001192  00000+0  18545-3 0  9994
2 63730  51.9042  50.6715 0007176 319.9327  40.1106 14.79940132 25213
KUIPER-00015            
1 63731U 25088H   25284.11252546  .00004039  00000+0  53992-3 0  9996
2 63731  51.8984  62.2328 0009281 303.8786  56.1294 14.81364898 25517
